PHASE 3B (AO-10)        
1 14129U 83058B   21005.79784508  .00000411  00000-0  00000-0 0  9993
2 14129  25.7619 181.8418 6070844 298.7938  13.7724  2.05866333254578
UOSAT 2 (UO-11)         
1 14781U 84021B   21010.73924983  .00000118  00000-0  20571-4 0  9994
2 14781  97.5895  18.3842 0007205 234.3008 125.7537 14.83235939983553
LUSAT (LO-19)           
1 20442U 90005G   21010.40468947 -.00000014  00000-0  11588-4 0  9995
2 20442  98.7206 324.6229 0010667 266.0020  93.9944 14.32973000618192
EYESAT A (AO-27)        
1 22825U 93061C   21010.53916702 -.00000001  00000-0  17633-4 0  9991
2 22825  98.9241  24.2175 0009229 130.2013 229.9978 14.30103179423416
ITAMSAT (IO-26)         
1 22826U 93061D   21010.75671896  .00000006  00000-0  20031-4 0  9998
2 22826  98.9182  24.3647 0009870 118.6311 241.5864 14.30440693423935
RADIO ROSTO (RS-15)     
1 23439U 94085A   21010.65723597 -.00000037  00000-0  15882-3 0  9993
2 23439  64.8162 271.1634 0155793   3.5957 356.6050 11.27570002 72541
JAS-2 (FO-29)           
1 24278U 96046B   21010.21001489 -.00000054  00000-0 -18339-4 0  9996
2 24278  98.5855  99.0403 0350129 199.3808 159.3735 13.53101662204847
TECHSAT 1B (GO-32)      
1 25397U 98043D   21010.41875860 -.00000023  00000-0  92649-5 0  9994
2 25397  98.7534 316.5645 0001630 139.2067 220.9234 14.23698959169006
ISS (ZARYA)             
1 25544U 98067A   21011.05731259  .00001155  00000-0  28825-4 0  9998
2 25544  51.6470  39.9238 0000531 208.9152 175.6015 15.49277079264249
PCSAT (NO-44)           
1 26931U 01043C   21010.31876526 -.00000046  00000-0  14269-4 0  9998
2 26931  67.0523 328.5445 0007454 272.3121  87.7127 14.30602081  6626
SAUDISAT 1C (SO-50)     
1 27607U 02058C   21010.60744313 -.00000014  00000-0  18198-4 0  9996
2 27607  64.5559 101.0015 0029382  92.2095 268.2372 14.75701077971283
CUTE-1 (CO-55)          
1 27844U 03031E   21010.75491129  .00000055  00000-0  44538-4 0  9992
2 27844  98.6815  21.3517 0010029 169.6904 190.4482 14.22281205909609
CUBESAT XI-IV (CO-57)   
1 27848U 03031J   21010.49028041  .00000043  00000-0  39472-4 0  9994
2 27848  98.6876  21.6590 0009657 183.0666 177.0454 14.21862159909369
MOZHAYETS 4 (RS-22)     
1 27939U 03042A   21010.75115991  .00000128  00000-0  31577-4 0  9999
2 27939  98.1155 149.1927 0014081  61.9516 298.3113 14.66931877924404
CUBESAT XI-V            
1 28895U 05043F   21010.32724939  .00000114  00000-0  30864-4 0  9998
2 28895  98.0355 147.2596 0016435 353.0949   7.0025 14.63851991810875
CUTE-1.7+APD II (CO-65) 
1 32785U 08021C   21010.50991310  .00000275  00000-0  35110-4 0  9996
2 32785  97.5937 355.6632 0013384 160.5645 199.6085 14.88608413688679
DELFI-C3 (DO-64)        
1 32789U 08021G   21010.56153313  .00001222  00000-0  82464-4 0  9996
2 32789  97.3956  51.9080 0010975 331.7551  28.3081 15.08377580693026
SEEDS II (CO-66)        
1 32791U 08021J   21010.48553976  .00000255  00000-0  30995-4 0  9996
2 32791  97.5566   1.6860 0014400 128.4691 231.7823 14.91242512689238
YUBILEINY (RS-30)       
1 32953U 08025A   21010.72214596  .00000028  00000-0  12906-3 0  9998
2 32953  82.5040 149.0311 0018719 322.4338  37.5433 12.43099446573386
KKS-1 (KISEKI)          
1 33499U 09002H   21010.61419632  .00000109  00000-0  23881-4 0  9991
2 33499  98.2896 236.8433 0009031 176.7619 183.3650 14.75605142643139
SWISSCUBE               
1 35932U 09051B   21010.48810843  .00000133  00000-0  40990-4 0  9990
2 35932  98.6066 205.4599 0007087 205.3534 154.7316 14.56474613599963
BEESAT-1                
1 35933U 09051C   21010.80386543  .00000115  00000-0  36792-4 0  9997
2 35933  98.6044 207.6427 0005079 216.0935 143.9920 14.56540325600167
ITUPSAT1                
1 35935U 09051E   21010.50826070  .00000103  00000-0  34794-4 0  9997
2 35935  98.6149 207.5056 0007382 219.7645 140.3011 14.55678627599793
XIWANG-1 (HOPE-1)       
1 36122U 09072B   21010.44104114 -.00000037  00000-0  14385-4 0  9991
2 36122 100.1123 357.7865 0008195 106.7295 253.4729 13.16358456532103
JUGNU                   
1 37839U 11058B   21010.60666230  .00000307  00000-0  21534-4 0  9997
2 37839  19.9613 106.4824 0018867 151.5783 340.4105 14.12699890478113
SRMSAT                  
1 37841U 11058D   21010.74935633  .00000297  00000-0  17867-4 0  9993
2 37841  19.9705 174.2368 0011917   1.5473  26.2000 14.10682691477563
M-CUBED & EXP-1 PRIME   
1 37855U 11061F   21010.51244992  .00002169  00000-0  11220-3 0  9994
2 37855 101.7256 212.0000 0168705 180.2289 179.8874 15.07064827502386
STRAND-1                
1 39090U 13009E   21010.63415589  .00000028  00000-0  24944-4 0  9996
2 39090  98.4369 216.4371 0009759  34.2295 325.9518 14.35163155412421
SOMP                    
1 39134U 13015E   21010.57316617  .00001724  00000-0  84325-4 0  9990
2 39134  64.8648 325.6005 0013666 219.6653 140.3476 15.21857735427184
BEESAT-3                
1 39135U 13015F   21010.44497353  .00001418  00000-0  77170-4 0  9994
2 39135  64.8676 352.6719 0019094 209.5964 150.4084 15.18813387426640
BEESAT-2                
1 39136U 13015G   21010.44355417  .00001244  00000-0  69753-4 0  9994
2 39136  64.8742 358.4304 0029778 263.8491  95.9242 15.18191830426525
ZACUBE-1 (TSHEPISOSAT)  
1 39417U 13066B   21010.53593481  .00000312  00000-0  45358-4 0  9997
2 39417  97.5786   3.1905 0057779 320.0861  39.6111 14.81405694385695
GOMX-1                  
1 39430U 13066Q   21010.78793070  .00000175  00000-0  41038-4 0  9993
2 39430  97.8069 302.9628 0149332 251.4277 107.0659 14.59519899380043
CUBEBUG-2 (LO-74)       
1 39440U 13066AA  21010.51754190  .00000318  00000-0  50765-4 0  9991
2 39440  97.6558 347.8599 0080723  28.9566 331.6088 14.76137073383128
FUNCUBE-1 (AO-73)       
1 39444U 13066AE  21010.54791541  .00000373  00000-0  51909-4 0  9991
2 39444  97.5706   5.5260 0056692 311.0946  48.5379 14.82289252384048
UWE-3                   
1 39446U 13066AG  21010.48998381  .00000327  00000-0  49672-4 0  9990
2 39446  97.6190 354.9128 0069717 355.7007   4.3597 14.78673071383162
SPROUT                  
1 39770U 14029E   21010.74790978  .00001009  00000-0  11558-3 0  9990
2 39770  97.9064 122.3274 0009204  14.3018 345.8476 14.88120199359889
UNISAT-6                
1 40012U 14033C   21010.63149090  .00000202  00000-0  37071-4 0  9990
2 40012  97.6870 221.2129 0059279  51.5358 309.1149 14.74224039352940
DUCHIFAT-1              
1 40021U 14033M   21010.38179961  .00000557  00000-0  61942-4 0  9999
2 40021  97.9595 309.0575 0012239 331.4269  28.6277 14.91139421356727
QB50P1                  
1 40025U 14033R   21010.53788306  .00000350  00000-0  42926-4 0  9991
2 40025  97.9258 300.9055 0012063 344.7437  15.3414 14.89301328355919
NUDT-PHONESAT           
1 40900U 15049B   21010.80814131  .00003157  00000-0  12818-3 0  9991
2 40900  97.4261  26.0410 0011867 342.5931 190.7213 15.25279555294786
ZDPS 2A                 
1 40901U 15049C   21010.83943144  .00001433  00000-0  71778-4 0  9998
2 40901  97.4630  19.8831 0013808  17.9978  59.4802 15.18915818294040
ZDPS 2B                 
1 40902U 15049D   21010.82152064  .00001616  00000-0  80494-4 0  9999
2 40902  97.4648  17.1487 0013841  15.7955  62.3815 15.18930714294012
XW-2A                   
1 40903U 15049E   21010.83334123  .00002500  00000-0  56329-4 0  9992
2 40903  97.2612  65.7032 0011323 224.0389 256.3194 15.44189140298462
KAITUO 1A               
1 40904U 15049F   21010.80654775  .00000716  00000-0  40716-4 0  9998
2 40904  97.4831  14.7971 0015442  30.3652  72.5211 15.15958521293650
2015-049G               
1 40905U 15049G   21010.78561128  .00000751  00000-0  43902-4 0  9994
2 40905  97.4942  11.8989 0016386  28.7724  73.3576 15.14787690293468
XW-2C                   
1 40906U 15049H   21010.80079712  .00000991  00000-0  54323-4 0  9996
2 40906  97.4827  15.1971 0015361  21.4276  55.6127 15.16420082293672
XW-2D                   
1 40907U 15049J   21010.82653154  .00000872  00000-0  47856-4 0  9998
2 40907  97.4816  14.9697 0014615  17.9595  60.7535 15.16696887293700
LILACSAT-2              
1 40908U 15049K   21010.81997769  .00000303  00000-0  20119-4 0  9993
2 40908  97.4990  13.0307 0016779  30.2362  47.2755 15.14247186293374
XW-2F                   
1 40910U 15049M   21010.78386979  .00001524  00000-0  77020-4 0  9996
2 40910  97.4711  17.8014 0014641   6.3218  80.7271 15.18506372293795
XW-2B                   
1 40911U 15049N   21010.82083074  .00000873  00000-0  48001-4 0  9995
2 40911  97.4818  15.6607 0014624  19.0589  59.3176 15.16617960293599
KAITUO 1B               
1 40912U 15049P   21010.77704792  .00001643  00000-0  77137-4 0  9995
2 40912  97.4477  22.1086 0014130 340.9889 105.2909 15.20973672294222
TIANWANG 1C (TW-1C)     
1 40926U 15051B   21010.82600049  .00104484  00000-0  40070-3 0  9991
2 40926  97.0531  71.6014 0002427  14.8515  95.8731 15.87135165299618
TIANWANG 1A (TW-1A)     
1 40928U 15051D   21010.84123275  .00003831  00000-0  85094-4 0  9996
2 40928  97.0929  39.5803 0010893 141.0442  31.7368 15.44230191297350
LAPAN-A2                
1 40931U 15052B   21010.70152790  .00000560  00000-0 -11228-4 0  9995
2 40931   6.0022 297.4312 0013781 329.7098  30.2266 14.76657288285946
E-ST@R-II               
1 41459U 16025D   21010.85669430  .00002255  00000-0  11535-3 0  9994
2 41459  98.1204 137.9964 0161473 233.1911 125.4366 15.07235348258673
AAUSAT 4                
1 41460U 16025E   21010.85562594  .00003812  00000-0  18437-3 0  9997
2 41460  98.1187 141.1295 0149753 219.3722 139.6555 15.09920756258923
NUSAT-1 (FRESCO)        
1 41557U 16033B   21010.75714828  .00001862  00000-0  69137-4 0  9998
2 41557  97.3981 105.6657 0014861  75.8505  42.3925 15.28754488257439
BEESAT-4                
1 41619U 16040W   21010.73357723  .00001705  00000-0  71526-4 0  9991
2 41619  97.2937  71.1189 0011383 160.7162 199.4509 15.24775570240978
